{"fetched_at":"2026-04-08T17:04:03Z","count":12288,"tles":[{"name":"STARLINK-37280","line1":"1 68511U 26068D   26097.12288762 -.00407514  63655-4 -12199-2 0  9999","line2":"2 68511  53.1619   6.9103 0000237   7.8970 352.2061 15.91498875  1164","category":"Starlink"}]}