{
  "norad_id": 68511,
  "name": "STARLINK-37280",
  "history": [
    {
      "epoch": "2026-04-07T02:56:57.490368Z",
      "apogee_km": 298.2460109043959,
      "perigee_km": 297.9295578496167,
      "latitude_deg": 1.235494903570037e-06,
      "longitude_deg": 127.26644776411314,
      "height_km": 298.8546992782319,
      "semi_major_axis_km": 6676.224784377006,
      "eccentricity": 2.37e-05,
      "inclination_deg": 53.1619,
      "raan_deg": 6.9103,
      "arg_perigee_deg": 7.897,
      "mean_anomaly_deg": 352.2061,
      "mean_motion_rev_day": 15.91498875
    }
  ]
}